DIAMOND RED             
1 42783U 17036U   22208.86342487  .00004803  00000+0  17790-3 0  9998
2 42783  97.1968 248.2786 0010565 176.2730 183.8590 15.28058077283118
PEGASUS                 
1 42784U 17036V   22208.68375768  .00006343  00000+0  22303-3 0  9994
2 42784  97.1964 249.3254 0010330 173.5656 186.5719 15.29645157283164
DIAMOND GREEN           
1 42785U 17036W   22208.07700840  .00005426  00000+0  20103-3 0  9998
2 42785  97.1973 247.5830 0010289 180.0278 180.0963 15.27994330283068
DIAMOND BLUE            
1 42786U 17036X   22208.86199082  .00005114  00000+0  18949-3 0  9995
2 42786  97.1971 248.3332 0010395 177.8720 182.2566 15.28015259283188
NUDTSAT                 
1 42787U 17036Y   22208.66899370  .00015290  00000+0  45139-3 0  9998
2 42787  97.2000 253.7191 0009370 160.7039 199.4546 15.35016928283260
SUCHAI                  
1 42788U 17036Z   22208.63116765  .00007895  00000+0  26091-3 0  9994
2 42788  97.1971 251.0182 0009830 167.8039 192.3442 15.31586276283336
SKCUBE                  
1 42789U 17036AA  22208.64853741  .00007204  00000+0  24459-3 0  9998
2 42789  97.1968 250.4553 0009824 169.1108 191.0348 15.30746231283220
VZLUSAT-1               
1 42790U 17036AB  22208.87607135  .00011650  00000+0  34660-3 0  9994
2 42790  97.1992 253.8821 0009104 158.3112 201.8519 15.34836767283442
ROBUSTA-1B              
1 42792U 17036AD  22208.85153508  .00007659  00000+0  25529-3 0  9992
2 42792  97.1968 251.2449 0009453 167.6906 192.4568 15.31324862283305
CICERO 6                
1 42793U 17036AE  22208.82103859  .00004353  00000+0  16219-3 0  9998
2 42793  97.1948 248.7717 0009100 174.8085 185.3250 15.27924045283235
CORVUS BC2              
1 42846U 17042X   22208.83110920  .00000602  00000+0  62948-4 0  9996
2 42846  97.4190  63.8490 0008362 213.7406 146.3283 14.92983588274308
CORVUS BC1              
1 42847U 17042Y   22208.57379590  .00000417  00000+0  45070-4 0  9999
2 42847  97.4192  63.9193 0008028 213.0557 147.0163 14.93086043274273
MIRATA                  
1 43015U 17073C   22208.67165811  .00005432  00000+0  39088-3 0  9994
2 43015  97.6704 102.4852 0238684  49.1393 313.0240 14.84462333253236
MAKERSAT 0              
1 43016U 17073D   22208.68211118  .00003727  00000+0  27580-3 0  9997
2 43016  97.6722 101.9825 0245986  53.6992 308.6668 14.82633083253154
AEROCUBE 7B (OCSD B)    
1 43042U 17071F   22208.84683963  .00697180  26013-3  84214-3 0  9998
2 43042  51.6241 190.0704 0004173  42.3007 317.8327 16.07600824262124
AEROCUBE 7C (OCSD C)    
1 43043U 17071G   22208.88208750  .00352081  61423-4  79496-3 0  9999
2 43043  51.6229 193.3053 0005697  42.6947 317.4504 15.97053656262050
ASGARDIA 1              
1 43049U 17071N   22208.39476416  .00133976  00000+0  59703-3 0  9995
2 43049  51.6264 200.8248 0005191  34.5876 325.5464 15.83352990261912
PROPCUBE 2 (FAUNA)      
1 43052U 17071R   22208.90588428  .01890526  11855-4  94139-3 0  9992
2 43052  51.6117 182.9547 0000480 261.6784  98.4180 16.20127870262182
CORVUS BC3              
1 43118U 18004H   22208.78540939  .00003683  00000+0  13808-3 0  9991
2 43118  97.3616 280.9805 0008273 210.6169 149.4589 15.27846203252375
MICROMAS-2A             
1 43131U 18004W   22208.78046345  .00014329  00000+0  38607-3 0  9991
2 43131  97.3750 288.1960 0006059 189.7086 170.4042 15.37917895252774
SPACEBEE-4              
1 43139U 18004AE  22208.88293249  .00032567  00000+0  62497-3 0  9995
2 43139  97.3845 293.8036 0005380 181.3483 178.7754 15.47906533253094
SPACEBEE-3              
1 43140U 18004AF  22208.83854992  .00092140  00000+0  10273-2 0  9997
2 43140  97.3866 298.2600 0004666 193.8810 166.2321 15.62503595253352
SPACEBEE-2              
1 43141U 18004AG  22208.84121763  .00170074  00000+0  12874-2 0  9994
2 43141  97.3866 300.1975 0005306 213.1358 146.9574 15.71871605253463
SPACEBEE-1              
1 43142U 18004AH  22208.82891873  .01100948  62849-3  20279-2 0  9994
2 43142  97.3764 302.7956 0012957 264.1875  95.7927 16.01210112253612
CICERO 7                
1 43143U 18004AJ  22208.77291838  .00009220  00000+0  27670-3 0  9994
2 43143  97.3732 287.5336 0005106 196.6633 163.4443 15.34664598252755
GOMX-4B                 
1 43196U 18015E   22208.70999971  .00003242  00000+0  12311-3 0  9994
2 43196  97.5383 348.4871 0015479 275.7149  84.2324 15.27468824249304
GOMX-4A                 
1 43197U 18015F   22208.85061203  .00005127  00000+0  18278-3 0  9991
2 43197  97.5372 349.5358 0015183 274.0103 232.3091 15.29266325249399
AEROCUBE 12A            
1 43556U 18046C   22208.86806215  .00013138  00000+0  32609-3 0  9990
2 43556  51.6376 346.6566 0006595 184.2871 175.8059 15.40660323225548
AEROCUBE 12B            
1 43557U 18046D   22208.72925949  .00010724  00000+0  28819-3 0  9998
2 43557  51.6395 352.4060 0006873 177.9223 182.1791 15.38429380225405
SURFSAT                 
1 43614U 18070B   22208.88679251  .00026998  00000+0  35795-3 0  9999
2 43614  93.0287 115.9545 0009098 194.6036 165.4967 15.58132400217359
CP7 (DAVE)              
1 43615U 18070C   22208.73846773  .00022030  00000+0  30976-3 0  9998
2 43615  93.0272 115.7041 0009137 200.5271 159.5627 15.56569671217297
ELFIN-B                 
1 43616U 18070D   22208.89385363  .00107428  00000+0  68702-3 0  9992
2 43616  93.0166 117.3040 0009890 164.6849 195.4726 15.75959748217708
ELFIN-A                 
1 43617U 18070E   22208.82070148  .00131252  00000+0  69994-3 0  9994
2 43617  93.0236 118.7377 0010365 157.2770 202.8967 15.79979919217756
CUBEBEL-1 (BSUSAT-1)    
1 43666U 18083E   22208.92327727  .00006870  00000+0  28703-3 0  9991
2 43666  97.4181 237.1584 0013288 182.4346 298.0985 15.23863906207640
CICERO 10               
1 43690U 18088A   22208.71914233  .00003750  00000+0  14680-3 0  9997
2 43690  85.0371 289.6004 0013122   8.5268 351.6196 15.25376291205891
IRVINE01                
1 43693U 18088D   22208.71151412  .00021100  00000+0  51891-3 0  9996
2 43693  85.0285 283.4996 0009165 320.2551  39.8028 15.40455506206413
PROXIMA I               
1 43694U 18088E   22208.70168699  .00004391  00000+0  16361-3 0  9997
2 43694  85.0304 286.2029 0015347 331.4273  28.6128 15.27034583206115
PROXIMA II              
1 43696U 18088G   22208.70243043  .00004404  00000+0  16418-3 0  9994
2 43696  85.0305 286.2223 0015410 331.4014  28.6384 15.27010486206107
FACSAT-1                
1 43721U 18096C   22208.81541396  .00014478  00000+0  39342-3 0  9999
2 43721  97.3500 288.6268 0011711 266.5236 218.3941 15.37601605204170
CENTAURI-2              
1 43722U 18096D   22208.76541866  .00015961  00000+0  38416-3 0  9995
2 43722  97.3556 290.7870 0010983 261.3742  98.6261 15.41304350204288
INNOSAT-2               
1 43738U 18096V   22208.86729356  .00041885  00000+0  66878-3 0  9992
2 43738  97.3644 298.6484 0012072 245.4031 182.4965 15.53001522204771
SIRION PATHFINDER-2     
1 43759U 18099B   22208.89495275  .00000413  00000+0  41265-4 0  9997
2 43759  97.6187 274.6055 0015121 122.3859 237.8828 14.96481410199091
CORVUS BC4              
1 43767U 18099K   22208.86553998  .00001457  00000+0  13512-3 0  9992
2 43767  97.6144 273.0248 0012884 127.2703 232.9695 14.95880633199014
MOVE-II                 
1 43780U 18099Y   22208.89924460  .00001580  00000+0  13846-3 0  9993
2 43780  97.6228 275.4223 0013621 131.5149 228.7245 14.98004879199111
SPACEBEE-7              
1 43816U 18099BL  22208.42151969  .00001556  00000+0  13689-3 0  9996
2 43816  97.6261 275.6847 0014469 116.4941 243.7768 14.97870188198631
SPACEBEE-5              
1 43817U 18099BM  22208.71897105  .00004658  00000+0  36179-3 0  9993
2 43817  97.6365 279.1191 0009443 121.5367 238.6781 15.01774859198815
SPACEBEE-6              
1 43818U 18099BN  22208.88375539  .00003109  00000+0  26090-3 0  9995
2 43818  97.6313 277.0870 0014809 112.4265 247.8528 14.98998058198891
SHIELDS 1               
1 43850U 18104B   22208.76342618  .00002430  00000+0  98895-4 0  9996
2 43850  85.0273  25.4603 0016124 113.4949 246.7991 15.23824944200644
STF-1                   
1 43852U 18104D   22208.89989894  .00006087  00000+0  22539-3 0  9998
2 43852  85.0299  25.5657 0014406 123.5935 236.6688 15.27333327200715
ZACUBE-2                
1 43907U 18111AH  22208.85954091  .00006285  00000+0  22922-3 0  9990
2 43907  97.1867  93.7280 0017907 299.1844 190.9162 15.28350299199464
LUME 1                  
1 43908U 18111AJ  22208.64832266  .00005583  00000+0  18778-3 0  9991
2 43908  97.1869  95.1994 0016311 292.8196  67.1322 15.31069993199547
AOBA VELOX-IV           
1 43940U 19003J   22208.74976271  .00018811  00000+0  47833-3 0  9996
2 43940  97.1228 243.4520 0016171   6.0148 354.1289 15.39517758196320
MOVE-IIB                
1 44398U 19038N   22208.93856128  .00010230  00000+0  48371-3 0  9996
2 44398  97.6353 178.6696 0019771 352.9736   7.1206 15.19414495169180
SONATE                  
1 44400U 19038Q   22208.88422632  .00003999  00000+0  21679-3 0  9999
2 44400  97.6443 177.5787 0022862 358.3242   1.7908 15.14963778169053
LUCKY-7                 
1 44406U 19038W   22208.85758277  .00003705  00000+0  19574-3 0  9995
2 44406  97.6402 178.1050 0022277 356.1389   3.9668 15.15939923169088
BEESAT 9                
1 44412U 19038AC  22208.42081106  .00004692  00000+0  23709-3 0  9996
2 44412  97.6370 178.0158 0019932   1.9804 358.1504 15.17409853168751
JAISAT-1                
1 44419U 19038F   22208.85550361  .00005020  00000+0  25008-3 0  9994
2 44419  97.6374 179.3229 0018766 357.9817   2.1337 15.17889410169186
DUCHIFAT-3              
1 44854U 19089C   22208.77853487  .00002330  00000+0  18366-3 0  9999
2 44854  36.9661 221.2422 0007732 197.4106 331.5583 15.01310278143992
EYESAT-NANO             
1 44877U 19092E   22208.46419237  .00006394  00000+0  27281-3 0  9995
2 44877  97.4635  32.5691 0010515 209.4414 150.6232 15.23213951144457
